[{"OBJECT_NAME":"COSMOS 2504","OBJECT_ID":"2015-020D","EPOCH":"2026-03-09T23:13:36.834816","MEAN_MOTION":13.6133253,"ECCENTRICITY":0.06077174,"INCLINATION":82.5183,"RA_OF_ASC_NODE":307.9923,"ARG_OF_PERICENTER":183.8961,"MEAN_ANOMALY":175.7346,"EPHEMERIS_TYPE":0,"CLASSIFICATION_TYPE":"U","NORAD_CAT_ID":40555,"ELEMENT_SET_NO":999,"REV_AT_EPOCH":53669,"BSTAR":0.00011649917,"MEAN_MOTION_DOT":3.31e-6,"MEAN_MOTION_DDOT":0},{"OBJECT_NAME":"THORAD AGENA D DEB","OBJECT_ID":"1970-025V","EPOCH":"2026-03-09T23:44:57.022368","MEAN_MOTION":13.64747493,"ECCENTRICITY":0.00239467,"INCLINATION":99.9246,"RA_OF_ASC_NODE":105.0209,"ARG_OF_PERICENTER":215.3118,"MEAN_ANOMALY":207.7877,"EPHEMERIS_TYPE":0,"CLASSIFICATION_TYPE":"U","NORAD_CAT_ID":4637,"ELEMENT_SET_NO":999,"REV_AT_EPOCH":77410,"BSTAR":0.0002047194,"MEAN_MOTION_DOT":1.18e-6,"MEAN_MOTION_DDOT":0}]
